HAWK-11A                
1 62382U 24247F   26068.51231358  .00009457  00000+0  34106-3 0  9991
2 62382  44.9941 114.3328 0005466 327.3713  32.6832 15.28849427 67741
STARLINK-34194          
1 64179U 25113K   26068.44742680  .00032903  00000+0  11182-2 0  9997
2 64179  53.1604  91.8602 0001558  73.4243 286.6929 15.30197387 45034
